GAOFEN-5 01             
1 43461U 18043A   26065.84935338  .00000706  00000+0  15557-3 0  9994
2 43461  98.4464  35.3543 0002746  57.6895 302.4570 14.60520250416756
GAOFEN-6                
1 43484U 18048A   26065.88220791  .00001120  00000+0  16726-3 0  9998
2 43484  97.7876 132.2617 0013007 143.1224 217.0884 14.76590511418292
GAOFEN-11 01            
1 43585U 18063A   26065.83835728  .00012200  00000+0  20327-3 0  9997
2 43585  97.1418 133.1739 0004042  13.3227 346.8132 15.52137534424454
ICESAT-2                
1 43613U 18070A   26065.81140392  .00004291  00000+0  15565-3 0  9990
2 43613  91.9987 263.3943 0003451 128.4989 231.6570 15.28303476416820
HYSIS                   
1 43719U 18096A   26065.82641488  .00001680  00000+0  23645-3 0  9995
2 43719  97.9946 133.3288 0001768 100.3910 259.7500 14.78650059392292
KAZSTSAT                
1 43783U 18099AB  26065.54958592  .00001461  00000+0  12317-3 0  9996
2 43783  97.4404 102.0793 0006905  20.9317 339.2189 14.99612634395927
SAUDISAT 5A             
1 43831U 18102A   26065.84049566  .00008267  00000+0  31517-3 0  9994
2 43831  97.3191 129.4137 0011242 131.6379 228.5825 15.26887368400053
SAUDISAT 5B             
1 43833U 18102C   26065.87837700  .00007712  00000+0  29138-3 0  9994
2 43833  97.3288 132.3376 0011884 133.6949 226.5277 15.27198980400175
GAOFEN-10R              
1 44622U 19066A   26065.86499661  .00002333  00000+0  29270-3 0  9991
2 44622  98.0398  18.7752 0008093 113.7380 246.4682 14.83142046347212
CARTOSAT-3              
1 44804U 19081A   26065.87063862  .00002736  00000+0  13323-3 0  9990
2 44804  97.4427 129.3203 0012812 146.1582 214.0473 15.19140124347931
GAOFEN-12 01            
1 44819U 19082A   26065.88372022  .00000730  00000+0  10231-3 0  9996
2 44819  97.8143  74.9557 0001909  60.0944 300.0457 14.80361401338954
CSG-1                   
1 44873U 19092A   26065.84037329  .00000883  00000+0  11751-3 0  9998
2 44873  97.8866 250.9194 0001378  83.2625 276.8745 14.82144204336312
NEMO-HD                 
1 46277U 20061F   26065.83033546  .00013491  00000+0  31386-3 0  9997
2 46277  97.2046 128.9111 0002480  82.7233 277.4297 15.42422429306190
SENTINEL-6A             
1 46984U 20086A   26065.18143328 -.00000044  00000+0  74644-4 0  9993
2 46984  66.0447 348.9980 0007821 270.8349  89.1770 12.80929611247130
GAOFEN-12 02            
1 48079U 21026A   26065.88390398  .00000746  00000+0  10516-3 0  9998
2 48079  97.9915  64.4984 0004351 189.3656 170.7475 14.80199638266628
PLEIADES NEO 3          
1 48268U 21034A   26065.87392951 -.00005421  00000+0 -68286-3 0  9997
2 48268  97.8930 142.1087 0001230  94.5451 265.5902 14.81668540262500
PLEIADES NEO 4          
1 49070U 21073E   26065.84015130  .00000234  00000+0  36408-4 0  9997
2 49070  97.8932 142.0715 0001348  91.2185 268.9182 14.81673653246217
