[{"OBJECT_NAME":"GAOFEN-5 01","OBJECT_ID":"2018-043A","EPOCH":"2026-03-06T20:23:04.132032","MEAN_MOTION":14.6052025,"ECCENTRICITY":0.0002746,"INCLINATION":98.4464,"RA_OF_ASC_NODE":35.3543,"ARG_OF_PERICENTER":57.6895,"MEAN_ANOMALY":302.457,"EPHEMERIS_TYPE":0,"CLASSIFICATION_TYPE":"U","NORAD_CAT_ID":43461,"ELEMENT_SET_NO":999,"REV_AT_EPOCH":41675,"BSTAR":0.00015557,"MEAN_MOTION_DOT":7.06e-6,"MEAN_MOTION_DDOT":0},{"OBJECT_NAME":"GAOFEN-6","OBJECT_ID":"2018-048A","EPOCH":"2026-03-06T21:10:22.763424","MEAN_MOTION":14.76590511,"ECCENTRICITY":0.0013007,"INCLINATION":97.7876,"RA_OF_ASC_NODE":132.2617,"ARG_OF_PERICENTER":143.1224,"MEAN_ANOMALY":217.0884,"EPHEMERIS_TYPE":0,"CLASSIFICATION_TYPE":"U","NORAD_CAT_ID":43484,"ELEMENT_SET_NO":999,"REV_AT_EPOCH":41829,"BSTAR":0.00016726,"MEAN_MOTION_DOT":1.12e-5,"MEAN_MOTION_DDOT":0},{"OBJECT_NAME":"GAOFEN-11 01","OBJECT_ID":"2018-063A","EPOCH":"2026-03-06T20:07:14.068992","MEAN_MOTION":15.52137534,"ECCENTRICITY":0.0004042,"INCLINATION":97.1418,"RA_OF_ASC_NODE":133.1739,"ARG_OF_PERICENTER":13.3227,"MEAN_ANOMALY":346.8132,"EPHEMERIS_TYPE":0,"CLASSIFICATION_TYPE":"U","NORAD_CAT_ID":43585,"ELEMENT_SET_NO":999,"REV_AT_EPOCH":42445,"BSTAR":0.00020327,"MEAN_MOTION_DOT":0.000122,"MEAN_MOTION_DDOT":0},{"OBJECT_NAME":"ICESAT-2","OBJECT_ID":"2018-070A","EPOCH":"2026-03-06T19:28:25.298688","MEAN_MOTION":15.28303476,"ECCENTRICITY":0.0003451,"INCLINATION":91.9987,"RA_OF_ASC_NODE":263.3943,"ARG_OF_PERICENTER":128.4989,"MEAN_ANOMALY":231.657,"EPHEMERIS_TYPE":0,"CLASSIFICATION_TYPE":"U","NORAD_CAT_ID":43613,"ELEMENT_SET_NO":999,"REV_AT_EPOCH":41682,"BSTAR":0.00015565,"MEAN_MOTION_DOT":4.291e-5,"MEAN_MOTION_DDOT":0},{"OBJECT_NAME":"HYSIS","OBJECT_ID":"2018-096A","EPOCH":"2026-03-06T19:50:02.245632","MEAN_MOTION":14.78650059,"ECCENTRICITY":0.0001768,"INCLINATION":97.9946,"RA_OF_ASC_NODE":133.3288,"ARG_OF_PERICENTER":100.391,"MEAN_ANOMALY":259.75,"EPHEMERIS_TYPE":0,"CLASSIFICATION_TYPE":"U","NORAD_CAT_ID":43719,"ELEMENT_SET_NO":999,"REV_AT_EPOCH":39229,"BSTAR":0.00023645,"MEAN_MOTION_DOT":1.68e-5,"MEAN_MOTION_DDOT":0},{"OBJECT_NAME":"KAZSTSAT","OBJECT_ID":"2018-099AB","EPOCH":"2026-03-06T13:11:24.223488","MEAN_MOTION":14.99612634,"ECCENTRICITY":0.00069056,"INCLINATION":97.4404,"RA_OF_ASC_NODE":102.0793,"ARG_OF_PERICENTER":20.9317,"MEAN_ANOMALY":339.2189,"EPHEMERIS_TYPE":0,"CLASSIFICATION_TYPE":"U","NORAD_CAT_ID":43783,"ELEMENT_SET_NO":999,"REV_AT_EPOCH":39592,"BSTAR":0.00012316512,"MEAN_MOTION_DOT":1.461e-5,"MEAN_MOTION_DDOT":0},{"OBJECT_NAME":"SAUDISAT 5A","OBJECT_ID":"2018-102A","EPOCH":"2026-03-06T20:10:18.825024","MEAN_MOTION":15.26887368,"ECCENTRICITY":0.0011242,"INCLINATION":97.3191,"RA_OF_ASC_NODE":129.4137,"ARG_OF_PERICENTER":131.6379,"MEAN_ANOMALY":228.5825,"EPHEMERIS_TYPE":0,"CLASSIFICATION_TYPE":"U","NORAD_CAT_ID":43831,"ELEMENT_SET_NO":999,"REV_AT_EPOCH":40005,"BSTAR":0.00031517,"MEAN_MOTION_DOT":8.267e-5,"MEAN_MOTION_DDOT":0},{"OBJECT_NAME":"SAUDISAT 5B","OBJECT_ID":"2018-102C","EPOCH":"2026-03-06T21:04:51.772800","MEAN_MOTION":15.2719898,"ECCENTRICITY":0.0011884,"INCLINATION":97.3288,"RA_OF_ASC_NODE":132.3376,"ARG_OF_PERICENTER":133.6949,"MEAN_ANOMALY":226.5277,"EPHEMERIS_TYPE":0,"CLASSIFICATION_TYPE":"U","NORAD_CAT_ID":43833,"ELEMENT_SET_NO":999,"REV_AT_EPOCH":40017,"BSTAR":0.00029138,"MEAN_MOTION_DOT":7.712e-5,"MEAN_MOTION_DDOT":0},{"OBJECT_NAME":"GAOFEN-10R","OBJECT_ID":"2019-066A","EPOCH":"2026-03-06T20:45:35.707104","MEAN_MOTION":14.83142046,"ECCENTRICITY":0.0008093,"INCLINATION":98.0398,"RA_OF_ASC_NODE":18.7752,"ARG_OF_PERICENTER":113.738,"MEAN_ANOMALY":246.4682,"EPHEMERIS_TYPE":0,"CLASSIFICATION_TYPE":"U","NORAD_CAT_ID":44622,"ELEMENT_SET_NO":999,"REV_AT_EPOCH":34721,"BSTAR":0.0002927,"MEAN_MOTION_DOT":2.333e-5,"MEAN_MOTION_DDOT":0},{"OBJECT_NAME":"CARTOSAT-3","OBJECT_ID":"2019-081A","EPOCH":"2026-03-06T20:53:43.176768","MEAN_MOTION":15.19140124,"ECCENTRICITY":0.0012812,"INCLINATION":97.4427,"RA_OF_ASC_NODE":129.3203,"ARG_OF_PERICENTER":146.1582,"MEAN_ANOMALY":214.0473,"EPHEMERIS_TYPE":0,"CLASSIFICATION_TYPE":"U","NORAD_CAT_ID":44804,"ELEMENT_SET_NO":999,"REV_AT_EPOCH":34793,"BSTAR":0.00013323,"MEAN_MOTION_DOT":2.736e-5,"MEAN_MOTION_DDOT":0},{"OBJECT_NAME":"GAOFEN-12 01","OBJECT_ID":"2019-082A","EPOCH":"2026-03-06T21:12:33.427008","MEAN_MOTION":14.80361401,"ECCENTRICITY":0.0001909,"INCLINATION":97.8143,"RA_OF_ASC_NODE":74.9557,"ARG_OF_PERICENTER":60.0944,"MEAN_ANOMALY":300.0457,"EPHEMERIS_TYPE":0,"CLASSIFICATION_TYPE":"U","NORAD_CAT_ID":44819,"ELEMENT_SET_NO":999,"REV_AT_EPOCH":33895,"BSTAR":0.00010231,"MEAN_MOTION_DOT":7.3e-6,"MEAN_MOTION_DDOT":0},{"OBJECT_NAME":"CSG-1","OBJECT_ID":"2019-092A","EPOCH":"2026-03-06T20:10:08.252256","MEAN_MOTION":14.82144204,"ECCENTRICITY":0.0001378,"INCLINATION":97.8866,"RA_OF_ASC_NODE":250.9194,"ARG_OF_PERICENTER":83.2625,"MEAN_ANOMALY":276.8745,"EPHEMERIS_TYPE":0,"CLASSIFICATION_TYPE":"U","NORAD_CAT_ID":44873,"ELEMENT_SET_NO":999,"REV_AT_EPOCH":33631,"BSTAR":0.00011751,"MEAN_MOTION_DOT":8.83e-6,"MEAN_MOTION_DDOT":0},{"OBJECT_NAME":"NEMO-HD","OBJECT_ID":"2020-061F","EPOCH":"2026-03-06T19:55:40.983744","MEAN_MOTION":15.42422429,"ECCENTRICITY":0.000248,"INCLINATION":97.2046,"RA_OF_ASC_NODE":128.9111,"ARG_OF_PERICENTER":82.7233,"MEAN_ANOMALY":277.4297,"EPHEMERIS_TYPE":0,"CLASSIFICATION_TYPE":"U","NORAD_CAT_ID":46277,"ELEMENT_SET_NO":999,"REV_AT_EPOCH":30619,"BSTAR":0.00031386,"MEAN_MOTION_DOT":0.00013491,"MEAN_MOTION_DDOT":0},{"OBJECT_NAME":"SENTINEL-6A","OBJECT_ID":"2020-086A","EPOCH":"2026-03-06T04:21:15.835392","MEAN_MOTION":12.80929611,"ECCENTRICITY":0.0007821,"INCLINATION":66.0447,"RA_OF_ASC_NODE":348.998,"ARG_OF_PERICENTER":270.8349,"MEAN_ANOMALY":89.177,"EPHEMERIS_TYPE":0,"CLASSIFICATION_TYPE":"U","NORAD_CAT_ID":46984,"ELEMENT_SET_NO":999,"REV_AT_EPOCH":24713,"BSTAR":7.4644151e-5,"MEAN_MOTION_DOT":-4.4e-7,"MEAN_MOTION_DDOT":0},{"OBJECT_NAME":"GAOFEN-12 02","OBJECT_ID":"2021-026A","EPOCH":"2026-03-06T21:12:49.303872","MEAN_MOTION":14.80199638,"ECCENTRICITY":0.0004351,"INCLINATION":97.9915,"RA_OF_ASC_NODE":64.4984,"ARG_OF_PERICENTER":189.3656,"MEAN_ANOMALY":170.7475,"EPHEMERIS_TYPE":0,"CLASSIFICATION_TYPE":"U","NORAD_CAT_ID":48079,"ELEMENT_SET_NO":999,"REV_AT_EPOCH":26662,"BSTAR":0.00010516,"MEAN_MOTION_DOT":7.46e-6,"MEAN_MOTION_DDOT":0},{"OBJECT_NAME":"PLEIADES NEO 3","OBJECT_ID":"2021-034A","EPOCH":"2026-03-06T20:58:27.509664","MEAN_MOTION":14.8166854,"ECCENTRICITY":0.000123,"INCLINATION":97.893,"RA_OF_ASC_NODE":142.1087,"ARG_OF_PERICENTER":94.5451,"MEAN_ANOMALY":265.5902,"EPHEMERIS_TYPE":0,"CLASSIFICATION_TYPE":"U","NORAD_CAT_ID":48268,"ELEMENT_SET_NO":999,"REV_AT_EPOCH":26250,"BSTAR":-0.00068286,"MEAN_MOTION_DOT":-5.421e-5,"MEAN_MOTION_DDOT":0},{"OBJECT_NAME":"PLEIADES NEO 4","OBJECT_ID":"2021-073E","EPOCH":"2026-03-06T20:09:49.072320","MEAN_MOTION":14.81673653,"ECCENTRICITY":0.0001348,"INCLINATION":97.8932,"RA_OF_ASC_NODE":142.0715,"ARG_OF_PERICENTER":91.2185,"MEAN_ANOMALY":268.9182,"EPHEMERIS_TYPE":0,"CLASSIFICATION_TYPE":"U","NORAD_CAT_ID":49070,"ELEMENT_SET_NO":999,"REV_AT_EPOCH":24621,"BSTAR":3.6408e-5,"MEAN_MOTION_DOT":2.34e-6,"MEAN_MOTION_DDOT":0}]
